NORAD_CAT_ID,OBJECT_NAME,OBJECT_TYPE,EPOCH,MEAN_MOTION,ECCENTRICITY,INCLINATION,RA_OF_ASC_NODE,ARG_OF_PERICENTER,MEAN_ANOMALY,BSTAR,MEAN_MOTION_DOT,MEAN_MOTION_DDOT,TLE_LINE0,TLE_LINE1,TLE_LINE2,SEMIMAJOR_AXIS,PERIOD,APOGEE,PERIGEE,DECAYED
53966.0,STARLINK-4635,PAYLOAD,2024-03-13 10:49:03,15.08831795,0.0001102,53.2074,244.4035,69.9083,290.2028,-2.1291e-05,-6.27e-06,0.0,0 STARLINK-4635,1 53966U 22125C   24073.45073546 -.00000627  00000-0 -21291-4 0  9997,2 53966  53.2074 244.4035 0001102  69.9083 290.2028 15.08831795 79751,6917.905,95.438,540.533,539.008,0.0
53966.0,STARLINK-4635,PAYLOAD,2024-03-13 20:21:22,15.08840025,0.0001615,53.2146,242.6207,75.5418,284.5753,0.00020506,2.977e-05,0.0,0 STARLINK-4635,1 53966U 22125C   24073.84817677  .00002977  00000-0  20506-3 0  9996,2 53966  53.2146 242.6207 0001615  75.5418 284.5753 15.08840025 79742,6917.88,95.438,540.863,538.628,0.0
53966.0,STARLINK-4635,PAYLOAD,2024-03-14 04:18:17,15.08855372,9.44e-05,53.2145,241.1369,86.892,273.218,-0.00017702,-3.105e-05,0.0,0 STARLINK-4635,1 53966U 22125C   24074.17936496 -.00003105  00000-0 -17702-3 0  9994,2 53966  53.2145 241.1369 0000944  86.8920 273.2180 15.08855372 79864,6917.833,95.437,540.351,539.045,0.0
53966.0,STARLINK-4635,PAYLOAD,2024-03-14 10:39:50,15.08844109,0.0001076,53.2142,239.9473,81.3784,278.7329,0.0002656,3.942e-05,0.0,0 STARLINK-4635,1 53966U 22125C   24074.44433381  .00003942  00000-0  26560-3 0  9998,2 53966  53.2142 239.9473 0001076  81.3784 278.7329 15.08844109 79903,6917.868,95.437,540.477,538.988,0.0
53966.0,STARLINK-4635,PAYLOAD,2024-03-14 18:36:45,15.08850741,0.0001162,53.2145,238.4607,80.0001,280.1122,0.00035505,5.369e-05,0.0,0 STARLINK-4635,1 53966U 22125C   24074.77553088  .00005369  00000-0  35505-3 0  9995,2 53966  53.2145 238.4607 0001162  80.0001 280.1122 15.08850741 79887,6917.848,95.437,540.516,538.909,0.0
53966.0,STARLINK-4635,PAYLOAD,2024-03-15 20:02:56,15.08847593,0.0001323,53.2148,233.7022,74.623,285.4908,0.00017254,2.46e-05,0.0,0 STARLINK-4635,1 53966U 22125C   24075.83537057  .00002460  00000-0  17254-3 0  9991,2 53966  53.2148 233.7022 0001323  74.6230 285.4908 15.08847593 80110,6917.857,95.437,540.637,538.807,0.0
53966.0,STARLINK-4635,PAYLOAD,2024-03-16 10:21:24,15.08838711,0.0001443,53.2146,231.0255,70.8383,289.2765,2.6806e-05,1.39e-06,0.0,0 STARLINK-4635,1 53966U 22125C   24076.43153422  .00000139  00000-0  26806-4 0  9993,2 53966  53.2146 231.0255 0001443  70.8383 289.2765 15.08838711 80202,6917.884,95.438,540.748,538.751,0.0
53966.0,STARLINK-4635,PAYLOAD,2024-03-16 13:32:10,15.08840211,0.0001301,53.2151,230.4329,76.3237,283.79,-7.2598e-06,-4.03e-06,0.0,0 STARLINK-4635,1 53966U 22125C   24076.56401355 -.00000403  00000-0 -72598-5 0  9994,2 53966  53.2151 230.4329 0001301  76.3237 283.7900 15.08840211 80157,6917.88,95.438,540.645,538.845,0.0
53966.0,STARLINK-4635,PAYLOAD,2024-03-16 16:42:57,15.08840981,0.0001525,53.216,229.8401,67.6422,292.4731,1.7127e-05,-1.5e-07,0.0,0 STARLINK-4635,1 53966U 22125C   24076.69649526 -.00000015  00000-0  17127-4 0  9996,2 53966  53.2160 229.8401 0001525  67.6422 292.4731 15.08840981 80172,6917.877,95.437,540.797,538.687,0.0
53966.0,STARLINK-4635,PAYLOAD,2024-03-17 14:58:20,15.08836818,0.0001417,53.2177,225.6747,102.4681,257.647,0.0001039,1.366e-05,0.0,0 STARLINK-4635,1 53966U 22125C   24077.62385299  .00001366  00000-0  10390-3 0  9997,2 53966  53.2177 225.6747 0001417 102.4681 257.6470 15.08836818 80315,6917.89,95.438,540.735,538.775,0.0
53966.0,STARLINK-4635,PAYLOAD,2024-03-19 09:53:45,15.08841581,0.000128,53.2166,217.645,77.554,282.5596,3.9504e-05,3.41e-06,0.0,0 STARLINK-4635,1 53966U 22125C   24079.41233501  .00000341  00000-0  39504-4 0  9995,2 53966  53.2166 217.6450 0001280  77.5540 282.5596 15.08841581 80587,6917.876,95.437,540.626,538.855,0.0
53966.0,STARLINK-4635,PAYLOAD,2024-03-19 13:04:31,15.0884751,0.0001304,53.2168,217.0517,76.4276,283.6861,9.3613e-05,1.203e-05,0.0,0 STARLINK-4635,1 53966U 22125C   24079.54481062  .00001203  00000-0  93613-4 0  9995,2 53966  53.2168 217.0517 0001304  76.4276 283.6861 15.08847510 80673,6917.857,95.437,540.625,538.82,0.0
53966.0,STARLINK-4635,PAYLOAD,2024-03-20 12:55:20,15.08839484,0.0001302,53.2173,212.5908,99.6973,260.4166,-3.2545e-05,-8.06e-06,0.0,0 STARLINK-4635,1 53966U 22125C   24080.53842794 -.00000806  00000-0 -32545-4 0  9996,2 53966  53.2173 212.5908 0001302  99.6973 260.4166 15.08839484 80753,6917.882,95.438,540.648,538.846,0.0
53966.0,STARLINK-4635,PAYLOAD,2024-03-20 16:06:05,15.08840268,0.0001416,53.2162,211.9945,94.7582,265.3572,-0.00010695,-1.99e-05,0.0,0 STARLINK-4635,1 53966U 22125C   24080.67090111 -.00001990  00000-0 -10695-3 0  9995,2 53966  53.2162 211.9945 0001416  94.7582 265.3572 15.08840268 80840,6917.88,95.438,540.724,538.765,0.0
53966.0,STARLINK-4635,PAYLOAD,2024-03-21 14:21:29,15.08847186,0.0001423,53.2163,207.831,95.8348,264.2806,0.00010161,1.33e-05,0.0,0 STARLINK-4635,1 53966U 22125C   24081.59825816  .00001330  00000-0  10161-3 0  9999,2 53966  53.2163 207.8310 0001423  95.8348 264.2806 15.08847186 80913,6917.858,95.437,540.708,538.739,0.0
53966.0,STARLINK-4635,PAYLOAD,2024-03-21 17:32:15,15.08857358,0.0001507,53.2171,207.2328,81.7166,278.3997,0.00028677,4.281e-05,0.0,0 STARLINK-4635,1 53966U 22125C   24081.73073405  .00004281  00000-0  28677-3 0  9993,2 53966  53.2171 207.2328 0001507  81.7166 278.3997 15.08857358 81000,6917.827,95.436,540.735,538.65,0.0
53966.0,STARLINK-4635,PAYLOAD,2024-03-22 12:36:52,15.08855949,0.0001779,53.2155,203.6703,105.3449,254.774,0.0003534,5.343e-05,0.0,0 STARLINK-4635,1 53966U 22125C   24082.52561290  .00005343  00000-0  35340-3 0  9990,2 53966  53.2155 203.6703 0001779 105.3449 254.7740 15.08855949 81128,6917.832,95.437,540.927,538.466,0.0
53966.0,STARLINK-4635,PAYLOAD,2024-03-22 14:12:16,15.08856568,0.0001656,53.2158,203.3739,99.105,261.0129,0.00036143,5.471e-05,0.0,0 STARLINK-4635,1 53966U 22125C   24082.59185250  .00005471  00000-0  36143-3 0  9999,2 53966  53.2158 203.3739 0001656  99.1050 261.0129 15.08856568 81062,6917.83,95.437,540.84,538.549,0.0
53966.0,STARLINK-4635,PAYLOAD,2024-03-22 15:47:39,15.08862247,0.0001777,53.2161,203.078,73.6903,286.4285,0.00051137,7.865e-05,0.0,0 STARLINK-4635,1 53966U 22125C   24082.65809237  .00007865  00000-0  51137-3 0  9993,2 53966  53.2161 203.0780 0001777  73.6903 286.4285 15.08862247 81073,6917.812,95.436,540.907,538.448,0.0
53966.0,STARLINK-4635,PAYLOAD,2024-03-23 12:27:40,15.08838567,0.0001703,53.2167,199.2064,119.8331,240.2831,-7.0807e-05,-1.415e-05,0.0,0 STARLINK-4635,1 53966U 22125C   24083.51921644 -.00001415  00000-0 -70807-4 0  9999,2 53966  53.2167 199.2064 0001703 119.8331 240.2831 15.08838567 81272,6917.885,95.438,540.928,538.572,0.0
53966.0,STARLINK-4635,PAYLOAD,2024-03-23 14:03:03,15.08835273,0.0001599,53.2159,198.9094,106.609,253.5078,8.1443e-05,1.008e-05,0.0,0 STARLINK-4635,1 53966U 22125C   24083.58545858  .00001008  00000-0  81443-4 0  9999,2 53966  53.2159 198.9094 0001599 106.6090 253.5078 15.08835273 81216,6917.895,95.438,540.866,538.654,0.0
53966.0,STARLINK-4635,PAYLOAD,2024-03-24 13:53:50,15.08854087,0.0001577,53.2164,194.4476,114.5634,245.5522,0.00077191,0.00012023,0.0,0 STARLINK-4635,1 53966U 22125C   24084.57905722  .00012023  00000-0  77191-3 0  9992,2 53966  53.2164 194.4476 0001577 114.5634 245.5522 15.08854087 81360,6917.837,95.437,540.793,538.611,0.0
53966.0,STARLINK-4635,PAYLOAD,2024-03-24 17:04:36,15.08861575,0.0001546,53.2165,193.8518,117.2021,242.9129,0.00091628,0.00014333,0.0,0 STARLINK-4635,1 53966U 22125C   24084.71153455  .00014333  00000-0  91628-3 0  9993,2 53966  53.2165 193.8518 0001546 117.2021 242.9129 15.08861575 81451,6917.814,95.436,540.749,538.61,0.0
53966.0,STARLINK-4635,PAYLOAD,2024-03-25 13:44:37,15.08856587,0.0001361,53.2163,189.9872,97.2417,262.873,0.00069979,0.00010872,0.0,0 STARLINK-4635,1 53966U 22125C   24085.57265758  .00010872  00000-0  69979-3 0  9996,2 53966  53.2163 189.9872 0001361  97.2417 262.8730 15.08856587 81589,6917.83,95.437,540.636,538.753,0.0
53966.0,STARLINK-4635,PAYLOAD,2024-03-26 13:35:26,15.08819861,0.0001415,53.217,185.5328,108.4443,251.6703,-4.8143e-05,-1.054e-05,0.0,0 STARLINK-4635,1 53966U 22125C   24086.56627827 -.00001054  00000-0 -48143-4 0  9990,2 53966  53.2170 185.5328 0001415 108.4443 251.6703 15.08819861 81736,6917.942,95.439,540.786,538.828,0.0
53966.0,STARLINK-4635,PAYLOAD,2024-03-26 23:07:45,15.08836506,0.0001133,53.2171,183.7432,89.8152,270.297,0.00070981,0.00011026,0.0,0 STARLINK-4635,1 53966U 22125C   24086.96372130  .00011026  00000-0  70981-3 0  9990,2 53966  53.2171 183.7432 0001133  89.8152 270.2970 15.08836506 81793,6917.891,95.438,540.54,538.972,0.0
53966.0,STARLINK-4635,PAYLOAD,2024-03-27 13:26:12,15.08860729,0.0001512,53.2167,181.0729,114.7484,245.3665,0.001114,0.00017496,0.0,0 STARLINK-4635,1 53966U 22125C   24087.55986929  .00017496  00000-0  11140-2 0  9991,2 53966  53.2167 181.0729 0001512 114.7484 245.3665 15.08860729 81883,6917.817,95.436,540.728,538.636,0.0
53966.0,STARLINK-4635,PAYLOAD,2024-03-27 22:58:31,15.08860109,0.0001077,53.215,179.2858,101.2186,258.8927,0.00064361,9.976e-05,0.0,0 STARLINK-4635,1 53966U 22125C   24087.95730541  .00009976  00000-0  64361-3 0  9990,2 53966  53.2150 179.2858 0001077 101.2186 258.8927 15.08860109 81942,6917.819,95.436,540.429,538.939,0.0
53966.0,STARLINK-4635,PAYLOAD,2024-03-28 11:41:36,15.08843564,0.0001983,53.2173,176.906,100.2529,259.8687,1.2899e-05,-8.3e-07,0.0,0 STARLINK-4635,1 53966U 22125C   24088.48722907 -.00000083  00000-0  12899-4 0  9997,2 53966  53.2173 176.9060 0001983 100.2529 259.8687 15.08843564 82022,6917.869,95.437,541.106,538.363,0.0
53966.0,STARLINK-4635,PAYLOAD,2024-03-28 14:52:22,15.08848564,0.0001765,53.2166,176.31,92.6967,267.4227,9.0746e-05,1.157e-05,0.0,0 STARLINK-4635,1 53966U 22125C   24088.61970644  .00001157  00000-0  90746-4 0  9994,2 53966  53.2166 176.3100 0001765  92.6967 267.4227 15.08848564 81974,6917.854,95.437,540.94,538.498,0.0
